ONEWEB-0033             
1 45142U 20008M   25018.40330370  .00000540  00000+0  15100-2 0  9999
2 45142  87.8908 138.8635 0001773 110.7766 249.3551 13.10370194240798
ONEWEB-0035             
1 45143U 20008N   25018.35845694 -.00000570  00000+0 -16679-2 0  9991
2 45143  87.8915 138.8650 0001634 109.6161 250.5143 13.10372358240511
ONEWEB-0036             
1 45144U 20008P   25018.27215087 -.00000463  00000+0 -13626-2 0  9990
2 45144  87.8911 138.8310 0001479  98.4473 261.6822 13.10371435240937
ONEWEB-0038             
1 45145U 20008Q   25018.53513560 -.00000370  00000+0 -10791-2 0  9994
2 45145  87.8906 123.6313 0001103 127.5533 232.5695 13.11414127242879
ONEWEB-0039             
1 45146U 20008R   25018.40661917  .00000386  00000+0  10690-2 0  9994
2 45146  87.8910 138.8247 0000940 104.3749 255.7482 13.10369167240746
ONEWEB-0040             
1 45147U 20008S   25018.39995581  .00002760  00000+0  78656-2 0  9994
2 45147  87.8919 138.8414 0001584 104.7747 255.3556 13.10389788240445
ONEWEB-0043             
1 45149U 20008U   25018.40164290  .00000575  00000+0  16105-2 0  9996
2 45149  87.8913 138.8362 0001248  93.5707 266.5563 13.10370581240769
ONEWEB-0044             
1 45150U 20008V   25018.35348765 -.00000600  00000+0 -17554-2 0  9993
2 45150  87.8914 138.8390 0001327  99.9561 260.1717 13.10372421241058
